[{"OBJECT_NAME":"OBJECT J","OBJECT_ID":"2023-091J","EPOCH":"2026-03-09T22:57:45.383328","MEAN_MOTION":15.13201377,"ECCENTRICITY":0.00147906,"INCLINATION":97.519,"RA_OF_ASC_NODE":123.4537,"ARG_OF_PERICENTER":127.2759,"MEAN_ANOMALY":232.9824,"EPHEMERIS_TYPE":0,"CLASSIFICATION_TYPE":"U","NORAD_CAT_ID":57174,"ELEMENT_SET_NO":999,"REV_AT_EPOCH":14862,"BSTAR":0.00032020689,"MEAN_MOTION_DOT":5.634e-5,"MEAN_MOTION_DDOT":0},{"OBJECT_NAME":"STARLINK-34548","OBJECT_ID":"2025-142W","EPOCH":"2026-03-09T21:20:20.957280","MEAN_MOTION":14.99752914,"ECCENTRICITY":0.00111598,"INCLINATION":70.0032,"RA_OF_ASC_NODE":313.8354,"ARG_OF_PERICENTER":256.7432,"MEAN_ANOMALY":103.2483,"EPHEMERIS_TYPE":0,"CLASSIFICATION_TYPE":"U","NORAD_CAT_ID":64716,"ELEMENT_SET_NO":999,"REV_AT_EPOCH":3949,"BSTAR":0.071342808,"MEAN_MOTION_DOT":0.00948623,"MEAN_MOTION_DDOT":0}]
